[{"OBJECT_NAME":"STARLINK-5902","OBJECT_ID":"2023-042N","EPOCH":"2026-03-09T00:52:28.838496","MEAN_MOTION":15.02537897,"ECCENTRICITY":0.00012932,"INCLINATION":43.0042,"RA_OF_ASC_NODE":59.5275,"ARG_OF_PERICENTER":263.1469,"MEAN_ANOMALY":96.9226,"EPHEMERIS_TYPE":0,"CLASSIFICATION_TYPE":"U","NORAD_CAT_ID":55998,"ELEMENT_SET_NO":999,"REV_AT_EPOCH":16281,"BSTAR":0.00010539184,"MEAN_MOTION_DOT":1.22e-5,"MEAN_MOTION_DDOT":0},{"OBJECT_NAME":"FENGYUN 1C DEB","OBJECT_ID":"1999-025AXU","EPOCH":"2026-03-09T22:45:17.410752","MEAN_MOTION":14.89016033,"ECCENTRICITY":0.0148202,"INCLINATION":97.9241,"RA_OF_ASC_NODE":129.3565,"ARG_OF_PERICENTER":114.5021,"MEAN_ANOMALY":247.1731,"EPHEMERIS_TYPE":0,"CLASSIFICATION_TYPE":"U","NORAD_CAT_ID":30882,"ELEMENT_SET_NO":999,"REV_AT_EPOCH":946,"BSTAR":0.0012177352,"MEAN_MOTION_DOT":0.00014041,"MEAN_MOTION_DDOT":0}]
